[{"OBJECT_NAME":"POLYITAN-1","OBJECT_ID":"2014-033AJ","EPOCH":"2026-03-09T22:27:50.258304","MEAN_MOTION":15.29568085,"ECCENTRICITY":0.00093607,"INCLINATION":98.1053,"RA_OF_ASC_NODE":86.0432,"ARG_OF_PERICENTER":127.248,"MEAN_ANOMALY":232.9614,"EPHEMERIS_TYPE":0,"CLASSIFICATION_TYPE":"U","NORAD_CAT_ID":40042,"ELEMENT_SET_NO":999,"REV_AT_EPOCH":63840,"BSTAR":0.00083772474,"MEAN_MOTION_DOT":0.00024003,"MEAN_MOTION_DDOT":0},{"OBJECT_NAME":"STARLINK-35575","OBJECT_ID":"2025-240V","EPOCH":"2026-03-09T06:49:49.922112","MEAN_MOTION":15.30200551,"ECCENTRICITY":0.00011551,"INCLINATION":53.1591,"RA_OF_ASC_NODE":64.8826,"ARG_OF_PERICENTER":90.4832,"MEAN_ANOMALY":269.6301,"EPHEMERIS_TYPE":0,"CLASSIFICATION_TYPE":"U","NORAD_CAT_ID":66165,"ELEMENT_SET_NO":999,"REV_AT_EPOCH":2192,"BSTAR":0.0012026056,"MEAN_MOTION_DOT":0.00035429,"MEAN_MOTION_DDOT":0}]
